CUTE-1 (CO-55)          
1 27844U 03031E   25074.95410850  .00000945  00000+0  43142-3 0  9996
2 27844  98.6795  84.3252 0010858  77.9658 282.2737 14.23872443126456
CUBESAT XI-IV (CO-57)   
1 27848U 03031J   25074.93321607  .00000791  00000+0  36869-3 0  9996
2 27848  98.6823  84.3741 0010776  92.9680 267.2731 14.23225009126183
CUBESAT XI-V            
1 28895U 05043F   25074.93519662  .00005472  00000+0  91047-3 0  9994
2 28895  98.2348 218.3097 0014464 214.8753 145.1507 14.70419354 34353
CUTE-1.7+APD II (CO-65) 
1 32785U 08021C   25074.90332312  .00012845  00000+0  95993-3 0  9994
2 32785  97.7787  45.5592 0012380 130.4177 229.8130 15.02868823916205
AAUSAT-II               
1 32788U 08021F   25074.95012516  .00184900  00000+0  26228-2 0  9999
2 32788  97.6063  68.3287 0003913 106.3701 253.7984 15.55792272919933
CANX-2                  
1 32790U 08021H   25074.85287987  .00011248  00000+0  89700-3 0  9996
2 32790  97.8048  44.0536 0014227 122.2394 238.0211 15.00407128916034
SEEDS II (CO-66)        
1 32791U 08021J   25074.90703695  .00027195  00000+0  14436-2 0  9993
2 32791  97.7224  53.2550 0007156  97.9062 262.2982 15.15279391917503
SWISSCUBE               
1 35932U 09051B   25074.69086734  .00003269  00000+0  67691-3 0  9999
2 35932  98.4403 329.2949 0006489 187.7625 172.3475 14.60947226822173
BEESAT-1                
1 35933U 09051C   25074.90616261  .00002823  00000+0  59292-3 0  9991
2 35933  98.4332 330.0181 0004688 198.1517 161.9516 14.60421024822261
ITUPSAT1                
1 35935U 09051E   25074.64739325  .00002579  00000+0  55650-3 0  9993
2 35935  98.4429 329.3646 0006725 212.3089 147.7699 14.59243704821835
TISAT 1                 
1 36799U 10035E   25074.68116250  .00025688  00000+0  14408-2 0  9997
2 36799  98.0647 343.5579 0005233  53.2782 306.8927 15.13343241797966
AEROCUBE 4.5A           
1 38767U 12048K   25074.62654435  .00041922  00000+0  13168-2 0  9997
2 38767  64.6496 150.8325 0106679 298.1861  60.8524 15.27316525301664
STRAND-1                
1 39090U 13009E   25074.94766905  .00000950  00000+0  33666-3 0  9998
2 39090  98.3818 261.8915 0009249 154.5931 205.5712 14.36693093631257
BRITE-AUSTRIA           
1 39091U 13009F   25074.92383911  .00000639  00000+0  23345-3 0  9996
2 39091  98.3871 261.1332 0010622 162.6415 197.5137 14.36225816631263
NEE-01 PEGASO           
1 39151U 13018B   25074.78672288  .00007615  00000+0  79679-3 0  9997
2 39151  98.0591 201.8342 0013196 228.4323 131.5763 14.89860888642353
ESTCUBE 1               
1 39161U 13021C   25074.92647356  .00005277  00000+0  71780-3 0  9993
2 39161  97.7903 139.1189 0009778  73.4138 286.8147 14.79147083637226
POPACS 1                
1 39268U 13055D   25074.76783517  .00065640  34223-6  73644-3 0  9992
2 39268  80.9782 191.7098 0285997 276.7974  80.0798 15.26005569601481
POPACS 2                
1 39269U 13055E   25074.64888256  .00025396  00000+0  51960-3 0  9996
2 39269  80.9959 301.4777 0493034 206.0522 151.5109 14.71499902595311
POPACS 3                
1 39270U 13055F   25074.80649235  .00025544  00000+0  65683-3 0  9990
2 39270  81.0105   2.3200 0594756  15.9676 345.9385 14.45361537572083
ZACUBE-1 (TSHEPISOSAT)  
1 39417U 13066B   25074.84398461  .00013530  00000+0  12098-2 0  9994
2 39417  97.7722  32.4340 0044791 341.4988  18.4602 14.95222679612094
WNISAT-1                
1 39423U 13066H   25074.95367401  .00003359  00000+0  63297-3 0  9999
2 39423  97.6715 253.5217 0165396 234.6818 123.8822 14.56713091599988
TRITON-1                
1 39427U 13066M   25074.93985584  .00007602  00000+0  97959-3 0  9996
2 39427  97.8400 350.9181 0094198 284.7200  74.3586 14.78227511606302
DELFI-N3XT              
1 39428U 13066N   25074.73215168  .00017608  00000+0  18663-2 0  9990
2 39428  97.8374 353.4472 0085765 283.6053  75.5621 14.86450625606315
GOMX-1                  
1 39430U 13066Q   25074.91025357  .00004903  00000+0  76916-3 0  9992
2 39430  97.6955 298.8006 0135087 106.3809 255.2296 14.67062857602663
CUBEBUG-2 (LO-74)       
1 39440U 13066AA  25074.82152519  .00009552  00000+0  99015-3 0  9994
2 39440  97.8427  20.0833 0065545 102.3261 258.5304 14.88612137608670
NEE-02 KRYSAOR          
1 39441U 13066AB  25074.82225416  .00005648  00000+0  66186-3 0  9997
2 39441  97.8495  14.5296 0071252 129.5454 231.2086 14.83558553608169
FUNCUBE-1 (AO-73)       
1 39444U 13066AE  25074.84571470  .00020440  00000+0  16087-2 0  9997
2 39444  97.7607  36.6414 0040076 318.6169  41.2020 15.00208501610724
UWE-3                   
1 39446U 13066AG  25074.85085151  .00012683  00000+0  12319-2 0  9990
2 39446  97.8153  26.3634 0056209  44.8298 315.7441 14.91545649609123
BRITE-CA1 (TORONTO)     
1 40020U 14033L   25074.95964774  .00002889  00000+0  45433-3 0  9994
2 40020  97.9101 209.4855 0079571 303.9791  55.3872 14.71213720574801
DUCHIFAT-1              
1 40021U 14033M   25074.96991765  .00041918  00000+0  17675-2 0  9998
2 40021  98.1011  82.1613 0007075 245.1347 114.9152 15.23165815585261
NANOSATC-BR1            
1 40024U 14033Q   25074.92100737  .00028426  00000+0  15234-2 0  9996
2 40024  98.0899  67.0958 0004363   2.7029 357.4224 15.14949088584223
QB50P1                  
1 40025U 14033R   25074.90376742  .00019516  00000+0  12606-2 0  9996
2 40025  98.0772  52.8883 0010735 358.9901   1.1303 15.08238396583718
QB50P2                  
1 40032U 14033Y   25074.88762712  .00016822  00000+0  11462-2 0  9993
2 40032  98.0368  42.4901 0006447 300.3862  59.6726 15.06325923583465
PERSEUS-M2              
1 40037U 14033AD  25074.88015957  .00005101  00000+0  49386-3 0  9995
2 40037  97.9491  13.4561 0013153  24.6852 335.4994 14.93132618582331
PERSEUS-M1              
1 40039U 14033AF  25074.79754329  .00005343  00000+0  51775-3 0  9993
2 40039  97.9244   8.6091 0012956  24.1141 336.0682 14.93074727582178
POLYITAN-1              
1 40042U 14033AJ  25074.88821657  .00030782  00000+0  16499-2 0  9994
2 40042  98.1009  59.2981 0007835 303.6288  56.4194 15.14907810583793
TIGRISAT                
1 40043U 14033AK  25074.89437155  .00007242  00000+0  89156-3 0  9998
2 40043  97.7226 233.0185 0053082 136.0626 224.4827 14.82235770577669
AEROCUBE 6A             
1 40045U 14033AM  25074.93474083  .00015174  00000+0  15235-2 0  9995
2 40045  97.6843 245.3307 0044948 105.2492 255.3702 14.90612848578173
AEROCUBE 6B             
1 40046U 14033AN  25074.92779085  .00016332  00000+0  15968-2 0  9995
2 40046  97.6818 244.3280 0043472  99.3021 261.3118 14.91702269578252
CANX-4                  
1 40055U 14034C   25074.55697162  .00002972  00000+0  40111-3 0  9994
2 40055  98.3732 286.6969 0013949  46.9205 313.3171 14.79859214576665
CANX-5                  
1 40056U 14034D   25074.56014679  .00002982  00000+0  40232-3 0  9997
2 40056  98.3734 286.7176 0013948  47.1085 313.1293 14.79872033567473
UKUBE-1                 
1 40074U 14037F   25074.83662197  .00020775  00000+0  15462-2 0  9990
2 40074  98.3842  29.8394 0000701  73.2897 286.8403 15.02981363579459
BRITE-PL2 (HEWELIUSZ)   
1 40119U 14049B   25074.79428777  .00005375  00000+0  53637-3 0  9998
2 40119  97.8832 179.9226 0014934 184.1946 175.9150 14.91872492573037
AEROCUBE 5C             
1 40965U 15058B   25074.85935676  .00011340  00000+0  94890-3 0  9991
2 40965  64.7672 244.6460 0176748 226.9621 131.6573 14.87422161297386
AEROCUBE 7              
1 40966U 15058C   25074.90553247  .00014646  00000+0  11516-2 0  9993
2 40966  64.7640 235.0508 0169253 226.7787 131.9089 14.90403046297529
FOX-1A (AO-85)          
1 40967U 15058D   25074.88796310  .00010078  00000+0  86608-3 0  9991
2 40967  64.7745 259.4045 0173643 222.3136 136.4473 14.86896073 45327
SINOD-D 1               
1 40968U 15058E   25074.84609580  .00015233  00000+0  12185-2 0  9996
2 40968  64.7748 248.8564 0164484 221.3754 137.4806 14.90311387 48214
SNAP-3 ALICE            
1 40970U 15058G   25074.64434724  .00047257  00000+0  21742-2 0  9993
2 40970  64.7660 183.6894 0109744 221.2975 137.9813 15.14774440 46620
LMRST-SAT               
1 40971U 15058H   25074.94815914  .00010019  00000+0  85997-3 0  9990
2 40971  64.7746 254.8589 0175609 223.7280 134.9810 14.86713637 45337
SNAP-3 EDDIE            
1 40972U 15058J   25074.64898545  .00054874  00000+0  24908-2 0  9990
2 40972  64.7632 176.4704 0109054 222.4485 136.8169 15.15235071 48733
PROPCUBE 3              
1 40973U 15058K   25074.90776190  .00013735  00000+0  11059-2 0  9995
2 40973  64.7685 239.7434 0170670 225.4312 133.2763 14.89417271 46428
BISONSAT                
1 40974U 15058L   25074.73730824  .00033698  00000+0  20383-2 0  9991
2 40974  64.7648 201.3578 0137450 223.8505 135.1638 15.02852575 46403
SNAP-3 JIMI             
1 40975U 15058M   25074.83596455  .00021848  00000+0  15701-2 0  9995
2 40975  64.7672 222.5085 0156891 224.6420 134.1976 14.94849913 45522
PROPCUBE 1 (FLORA)      
1 40976U 15058N   25074.89927230  .00007979  00000+0  71460-3 0  9995
2 40976  64.7735 272.0379 0174960 225.2585 133.4174 14.85410776 48093
SINOD-D 3               
1 40977U 15058P   25074.94535425  .00011973  00000+0  99833-3 0  9996
2 40977  64.7719 261.7415 0165893 224.5435 134.2244 14.88777164 46403
HORYU-4                 
1 41340U 16012D   25074.94748315  .00041357  00000+0  13116-2 0  9994
2 41340  30.9988 345.7941 0008236 261.4629  98.5081 15.31450086499627
RAVAN                   
1 41849U 16067B   25074.50896792  .00026794  00000+0  10195-2 0  9995
2 41849  98.0529 276.5720 0010191 173.4419 186.6953 15.26692551457197
CELTEE 1                
1 41850U 16067C   25074.77792381  .00012449  00000+0  70796-3 0  9991
2 41850  98.1097 265.8374 0001269  47.4627 312.6709 15.13031142456405
OPTICUBE 04             
1 41851U 16067D   25074.76353842  .00006779  00000+0  46328-3 0  9999
2 41851  98.0920 258.1981 0016025 221.3097 138.6918 15.06405428456074
